NORAD_CAT_ID,OBJECT_NAME,OBJECT_TYPE,EPOCH,MEAN_MOTION,ECCENTRICITY,INCLINATION,RA_OF_ASC_NODE,ARG_OF_PERICENTER,MEAN_ANOMALY,BSTAR,MEAN_MOTION_DOT,MEAN_MOTION_DDOT,TLE_LINE0,TLE_LINE1,TLE_LINE2,SEMIMAJOR_AXIS,PERIOD,APOGEE,PERIGEE,DECAYED
53966.0,STARLINK-4635,PAYLOAD,2023-01-21 03:19:06,15.08856286,0.0001052,53.2184,317.8029,86.1111,274.0001,1.889e-05,1.3e-07,0.0,0 STARLINK-4635,1 53966U 22125C   23021.13827057  .00000013  00000-0  18890-4 0  9996,2 53966  53.2184 317.8029 0001052  86.1111 274.0001 15.08856286 16752,6917.831,95.437,540.423,538.9680000000001,0.0
53966.0,STARLINK-4635,PAYLOAD,2023-01-21 12:51:25,15.08850729,0.0001269,53.2189,316.0172,73.4196,286.6935,-6.9281e-05,-1.391e-05,0.0,0 STARLINK-4635,1 53966U 22125C   23021.53571563 -.00001391  00000-0 -69281-4 0  9990,2 53966  53.2189 316.0172 0001269  73.4196 286.6935 15.08850729 16817,6917.848000000001,95.437,540.59,538.835,0.0
53966.0,STARLINK-4635,PAYLOAD,2023-01-22 19:03:46,15.08832444,0.0001308,53.2172,310.3671,92.9279,267.1863,2.8175e-05,1.6e-06,0.0,0 STARLINK-4635,1 53966U 22125C   23022.79428696  .00000160  00000-0  28175-4 0  9995,2 53966  53.2172 310.3671 0001308  92.9279 267.1863 15.08832444 17002,6917.903,95.438,540.673,538.864,0.0
53966.0,STARLINK-4635,PAYLOAD,2023-01-23 04:36:03,15.08854157,0.000134,53.2188,308.5822,110.8783,249.2353,4.1528e-05,3.73e-06,0.0,0 STARLINK-4635,1 53966U 22125C   23023.19171246  .00000373  00000-0  41528-4 0  9999,2 53966  53.2188 308.5822 0001340 110.8783 249.2353 15.08854157 17068,6917.837,95.437,540.629,538.775,0.0
53966.0,STARLINK-4635,PAYLOAD,2023-01-23 18:54:33,15.08836925,0.0001404,53.2186,305.9075,77.2127,282.9022,-7.2338e-05,-1.439e-05,0.0,0 STARLINK-4635,1 53966U 22125C   23023.78788854 -.00001439  00000-0 -72338-4 0  9992,2 53966  53.2186 305.9075 0001404  77.2127 282.9022 15.08836925 17156,6917.89,95.438,540.726,538.784,0.0
53966.0,STARLINK-4635,PAYLOAD,2023-01-24 01:16:05,15.08852084,0.0001344,53.2185,304.7176,84.7394,275.3751,-8.7972e-05,-1.688e-05,0.0,0 STARLINK-4635,1 53966U 22125C   23024.05284020 -.00001688  00000-0 -87972-4 0  9995,2 53966  53.2185 304.7176 0001344  84.7394 275.3751 15.08852084 17199,6917.843000000001,95.437,540.638,538.779,0.0
53966.0,STARLINK-4635,PAYLOAD,2023-01-24 23:31:29,15.08831156,0.000102,53.217,300.5498,104.9609,255.1496,0.00012982,1.778e-05,0.0,0 STARLINK-4635,1 53966U 22125C   23024.98020553  .00001778  00000-0  12982-3 0  9992,2 53966  53.2170 300.5498 0001020 104.9609 255.1496 15.08831156 17334,6917.906999999999,95.438,540.4780000000001,539.067,0.0
53966.0,STARLINK-4635,PAYLOAD,2023-01-25 10:39:11,15.08843814,0.0001066999999999,53.218,298.4718,100.0675,260.0438,-4.8038e-06,-3.64e-06,0.0,0 STARLINK-4635,1 53966U 22125C   23025.44388110 -.00000364  00000-0 -48038-5 0  9995,2 53966  53.2180 298.4718 0001067 100.0675 260.0438 15.08843814 17409,6917.869000000001,95.437,540.472,538.996,0.0
53966.0,STARLINK-4635,PAYLOAD,2023-01-26 00:57:40,15.08833962,0.0001235,53.219,295.8011,95.303,264.8103,0.00010795,1.4300000000000002e-05,0.0,0 STARLINK-4635,1 53966U 22125C   23026.04004762  .00001430  00000-0  10795-3 0  9990,2 53966  53.2190 295.8011 0001235  95.3030 264.8103 15.08833962 17498,6917.899,95.438,540.618,538.909,0.0
53966.0,STARLINK-4635,PAYLOAD,2023-01-27 00:48:27,15.08840324,0.0001124,53.2182,291.339,111.1962,248.915,-3.632e-06,-3.46e-06,0.0,0 STARLINK-4635,1 53966U 22125C   23027.03364768 -.00000346  00000-0 -36320-5 0  9996,2 53966  53.2182 291.3390 0001124 111.1962 248.9150 15.08840324 17572,6917.879,95.438,540.5219999999999,538.967,0.0
53966.0,STARLINK-4635,PAYLOAD,2023-01-27 21:28:28,15.08830597,0.0001144,53.2184,287.4744,116.0239,244.0871,2.5654e-05,1.2e-06,0.0,0 STARLINK-4635,1 53966U 22125C   23027.89477624  .00000120  00000-0  25654-4 0  9991,2 53966  53.2184 287.4744 0001144 116.0239 244.0871 15.08830597 17709,6917.909000000001,95.438,540.566,538.9830000000001,0.0
53966.0,STARLINK-4635,PAYLOAD,2023-01-28 02:14:37,15.08842813,0.000108,53.2175,286.5793,96.1205,263.991,3.6186e-05,2.88e-06,0.0,0 STARLINK-4635,1 53966U 22125C   23028.09348912  .00000288  00000-0  36186-4 0  9998,2 53966  53.2175 286.5793 0001080  96.1205 263.9910 15.08842813 17802,6917.871999999999,95.437,540.484,538.99,0.0
53966.0,STARLINK-4635,PAYLOAD,2023-01-29 02:05:23,15.08851374,0.0001152,53.2174,282.1181,88.5958,271.5166,8.6415e-05,1.088e-05,0.0,0 STARLINK-4635,1 53966U 22125C   23029.08708235  .00001088  00000-0  86415-4 0  9995,2 53966  53.2174 282.1181 0001152  88.5958 271.5166 15.08851374 17950,6917.846,95.437,540.508,538.914,0.0
53966.0,STARLINK-4635,PAYLOAD,2023-01-29 16:23:52,15.08843784,0.0001107,53.2172,279.441,111.8062,248.3048,2.736e-05,1.48e-06,0.0,0 STARLINK-4635,1 53966U 22125C   23029.68324861  .00000148  00000-0  27360-4 0  9990,2 53966  53.2172 279.4410 0001107 111.8062 248.3048 15.08843784 18046,6917.869,95.437,540.5,538.968,0.0
53966.0,STARLINK-4635,PAYLOAD,2023-01-29 22:45:25,15.08838848,0.000109,53.2172,278.2505,101.5905,258.5209,-1.6455e-05,-5.5e-06,0.0,0 STARLINK-4635,1 53966U 22125C   23029.94821330 -.00000550  00000-0 -16455-4 0  9994,2 53966  53.2172 278.2505 0001090 101.5905 258.5209 15.08838848 18015,6917.884,95.438,540.503,538.995,0.0
53966.0,STARLINK-4635,PAYLOAD,2023-01-30 22:36:12,15.08848786,0.0001273,53.2171,273.7903,103.3053,256.8081,-1.663e-05,-5.53e-06,0.0,0 STARLINK-4635,1 53966U 22125C   23030.94180660 -.00000553  00000-0 -16630-4 0  9998,2 53966  53.2171 273.7903 0001273 103.3053 256.8081 15.08848786 18160,6917.854,95.437,540.599,538.838,0.0
53966.0,STARLINK-4635,PAYLOAD,2023-01-31 01:46:58,15.08851036,0.0001285,53.2169,273.1957,102.2098,257.9038,3.1178e-06,-2.38e-06,0.0,0 STARLINK-4635,1 53966U 22125C   23031.07428386 -.00000238  00000-0  31178-5 0  9997,2 53966  53.2169 273.1957 0001285 102.2098 257.9038 15.08851036 18256,6917.847,95.437,540.601,538.823,0.0
53966.0,STARLINK-4635,PAYLOAD,2023-01-31 16:05:27,15.08833125,0.0001475,53.2158,270.5193,111.1844,248.9306,6.2222e-05,7.02e-06,0.0,0 STARLINK-4635,1 53966U 22125C   23031.67045171  .00000702  00000-0  62222-4 0  9998,2 53966  53.2158 270.5193 0001475 111.1844 248.9306 15.08833125 18343,6917.901,95.438,540.787,538.746,0.0
53966.0,STARLINK-4635,PAYLOAD,2023-01-31 22:26:59,15.08833565,0.0001251,53.2157,269.3312,102.1881,257.9252,8.1956e-05,1.016e-05,0.0,0 STARLINK-4635,1 53966U 22125C   23031.93541173  .00001016  00000-0  81956-4 0  9994,2 53966  53.2157 269.3312 0001251 102.1881 257.9252 15.08833565 18319,6917.9,95.438,540.63,538.9,0.0
53966.0,STARLINK-4635,PAYLOAD,2023-02-01 01:37:45,15.08835829,0.0001242,53.2143,268.7355,101.1048,259.0084,9.7154e-05,1.259e-05,0.0,0 STARLINK-4635,1 53966U 22125C   23032.06789069  .00001259  00000-0  97154-4 0  9993,2 53966  53.2143 268.7355 0001242 101.1048 259.0084 15.08835829 18331,6917.893,95.438,540.617,538.899,0.0
53966.0,STARLINK-4635,PAYLOAD,2023-02-02 01:28:32,15.08848978,0.0001592,53.2146,264.2763,96.494,263.6233,-0.00012534,-2.283e-05,0.0,0 STARLINK-4635,1 53966U 22125C   23033.06149198 -.00002283  00000-0 -12534-3 0  9995,2 53966  53.2146 264.2763 0001592  96.4940 263.6233 15.08848978 18553,6917.853,95.437,540.819,538.617,0.0
53966.0,STARLINK-4635,PAYLOAD,2023-02-02 17:22:24,15.08836398,0.0001459,53.2147,261.3024,98.1585,261.9572,2.3138e-05,8e-07,0.0,0 STARLINK-4635,1 53966U 22125C   23033.72389540  .00000080  00000-0  23138-4 0  9999,2 53966  53.2147 261.3024 0001459  98.1585 261.9572 15.08836398 18659,6917.891,95.438,540.766,538.747,0.0
53966.0,STARLINK-4635,PAYLOAD,2023-02-02 23:43:56,15.08842859,0.0001345,53.2152,260.1125,96.2035,263.911,5.3552e-05,5.65e-06,0.0,0 STARLINK-4635,1 53966U 22125C   23033.98885051  .00000565  00000-0  53552-4 0  9996,2 53966  53.2152 260.1125 0001345  96.2035 263.9110 15.08842859 18690,6917.872,95.437,540.667,538.806,0.0
53966.0,STARLINK-4635,PAYLOAD,2023-02-03 15:37:49,15.08831958,0.0001299,53.2156,257.1384,92.3092,267.8049,-1.4297e-05,-5.15e-06,0.0,0 STARLINK-4635,1 53966U 22125C   23034.65126166 -.00000515  00000-0 -14297-4 0  9996,2 53966  53.2156 257.1384 0001299  92.3092 267.8049 15.08831958 18798,6917.905,95.438,540.669,538.871,0.0
53966.0,STARLINK-4635,PAYLOAD,2023-02-04 09:07:03,15.08838316,0.0001312,53.2152,253.8673,92.4579,267.6564,3.9773e-05,3.45e-06,0.0,0 STARLINK-4635,1 53966U 22125C   23035.37989786  .00000345  00000-0  39773-4 0  9996,2 53966  53.2152 253.8673 0001312  92.4579 267.6564 15.08838316 18903,6917.886,95.438,540.658,538.843,0.0
53966.0,STARLINK-4635,PAYLOAD,2023-02-04 21:50:08,15.08845057,0.0001197,53.2155,251.4891,89.2335,270.8794,7.6982e-06,-1.65e-06,0.0,0 STARLINK-4635,1 53966U 22125C   23035.90981505 -.00000165  00000-0  76982-5 0  9991,2 53966  53.2155 251.4891 0001197  89.2335 270.8794 15.08845057 18919,6917.865,95.437,540.558,538.902,0.0
53966.0,STARLINK-4635,PAYLOAD,2023-02-05 08:57:50,15.08819083,0.0001391,53.2155,249.4078,83.3614,276.7537,0.00033227,5.001e-05,0.0,0 STARLINK-4635,1 53966U 22125C   23036.37350415  .00005001  00000-0  33227-3 0  9999,2 53966  53.2155 249.4078 0001391  83.3614 276.7537 15.08819083 19050,6917.944,95.439,540.772,538.847,0.0
53966.0,STARLINK-4635,PAYLOAD,2023-02-05 20:05:32,15.08838859,0.0001173,53.2156,247.3259,82.8065,277.306,6.1681e-05,6.94e-06,0.0,0 STARLINK-4635,1 53966U 22125C   23036.83717825  .00000694  00000-0  61681-4 0  9991,2 53966  53.2156 247.3259 0001173  82.8065 277.3060 15.08838859 19129,6917.884,95.438,540.56,538.937,0.0
53966.0,STARLINK-4635,PAYLOAD,2023-02-05 21:40:55,15.0883963,0.0001185,53.2156,247.0286,81.6413,278.4714,6.6681e-05,7.74e-06,0.0,0 STARLINK-4635,1 53966U 22125C   23036.90341767  .00000774  00000-0  66681-4 0  9991,2 53966  53.2156 247.0286 0001185  81.6413 278.4714 15.08839630 19062,6917.882,95.438,540.566,538.927,0.0
